# Planets and major natural satellites of the Solar system.
#
# The orbital and physical data for the planets necessarily come from a
# variety of sources.
#
#
# === Orbits ===
#
# CustomOrbits are used for most of the large bodies in the solar system.
# These are orbital calculations built into Celestia. In most cases,
# EllipticalOrbits are provided as well in order to give the reader of this
# file some rough idea of the shape and size of a body's orbit. If a body has
# a CustomOrbit defined, its EllipticalOrbit is *not* used by Celestia; the
# CustomOrbit will override the EllipticalOrbit.
#
# For the planets, the orbits are calculated using the VSOP87 theory
# (P. Bretagnon and G. Francou, "Planetary theories in rectangular and
# spherical variables. VSOP87 solutions", Astronomy & Astrophysics 202
# (1988) 309-315.
#
# The orbits of the following Saturnian satellites are from Gerard Dourneau
# (1987), "Observations et etude du mouvement des huit premiers satellites
# de Saturne":
# Mimas, Enceladus, Tethys, Dione, Rhea, Titan, Hyperion, Iapetus
#
# The orbits of the five largest Uranian satellites are from Laskar and
# Jacobson (1978), "An Analytical Ephemeris of the Uranian Satellites"
# (Miranda, Ariel, Umbriel, Titania, and Oberon)
#
# **** IMPORTANT ****
# For applications where more accuracy is required, the orbits of any solar
# system body may be replaced by a SPICE kernel or a file of postion/velocity
# samples. Detailed documentation on how to do this may be found on the
# Celestia WikiBook:
#    http://en.wikibooks.org/wiki/Celestia/Trajectories#CustomOrbit
# It is also possible to use JPL's DE405 or DE406 ephemeris For the positions
# of the  planets, Moon, and Pluto. Details are here:
#    http://en.wikibooks.org/wiki/Celestia/JPL_Ephemerides
# *******************
#
#
# === Rotational Elements ===
#
# For most bodies, IAU rotational elements are used. These are implemented
# internally by Celestia and selected by using a CustomRotation. The IAU
# rotational elements are given here:
#  http://astrogeology.usgs.gov/Projects/WGCCRE/
#
# UniformRotations are also listed for purely informational reasons; they are
# overridden by CustomRotations (when present.)
#
#
# When alternate data sources are used for orbits or rotational elements, the
# source is noted by a comment in the body definition

"Mercury" "Sol"
{
    Class       "planet"
    Texture     "mercury.*"
    # NormalMap "mercury-normal.*"
    Color       [ 1.0 0.794 0.580 ]
    Radius      2439.7
    CustomOrbit "vsop87-mercury"

    # Overridden by CustomOrbit
    # EllipticalOrbit
    # {
    #     Epoch           2457754.5  # 2017 Jan 01
    #     Period          0.240846335370278
    #     SemiMajorAxis   0.3870982883171065
    #     Eccentricity    0.2056271908367409
    #     Inclination     7.003994155746581
    #     AscendingNode   48.30931074679484
    #     ArgOfPericenter 29.1701873778266
    #     MeanAnomaly     26.14989275135402
    # }

    BodyFrame      { EquatorJ2000 {} }
    CustomRotation "iau-mercury"

    # Overridden by CustomRotation
    # UniformRotation
    # {
    #     Period        1407.509405
    #     Inclination   28.55
    #     AscendingNode 11.01
    #     MeridianAngle 329.548
    # }

    GeomAlbedo      0.141380
    BondAlbedo      0.088

    InfoURL "https://en.wikipedia.org/wiki/Mercury_(planet)"
}

"Venus" "Sol"
{
    Class       "planet"
    Texture     "venus.*"
    # NormalMap "venus-normal.*"
    Radius      6051.8

    Atmosphere
    {
        Height         200
        MieScaleHeight 27
        Mie            0.02
        MieAsymmetry   -0.2
        Rayleigh       [ 0.0031 0.0058 0.0120 ]
        CloudMap       "venus-clouds.png"
        CloudHeight    48.5
        CloudSpeed     90
    }
    CustomOrbit "vsop87-venus"

    # Overridden by CustomOrbit
    # EllipticalOrbit
    # {
    #     Epoch           2457754.5  # 2017 Jan 01
    #     Period          0.615190941031932
    #     SemiMajorAxis   0.7233272732921288
    #     Eccentricity    0.006740611200116246
    #     Inclination     3.394407540605979
    #     AscendingNode   76.63344927192618
    #     ArgOfPericenter 55.01851197233226
    #     MeanAnomaly     278.7601029077279
    # }

    BodyFrame      { EquatorJ2000 {} }
    CustomRotation "iau-venus"

    # Overridden by CustomRotation
    # UniformRotation
    # {
    #     Period        5832.443616
    #     Inclination   157.16
    #     AscendingNode 182.76
    #     MeridianAngle 19.80
    # }

    GeomAlbedo      0.672604
    BondAlbedo      0.760
    TempDiscrepancy 507.5

    InfoURL "https://en.wikipedia.org/wiki/Venus"
}

"Earth" "Sol"
{
    Class         "planet"
    Texture       "earth.*"
    NightTexture  "earth-night.*"
    NormalMap     "earth-normal.*"
    Color         [ 0.856 0.910 1.0 ]
    SpecularColor [ 0.50 0.44 0.40 ]
    SpecularPower 120
    Radius        6378.140
    Oblateness    0.0033528
    Atmosphere
    {
        Height           100
        Mie              0.0015
        MieAsymmetry     -0.7
        MieScaleHeight   10
        Rayleigh         [ 0.0029 0.0053 0.0110 ]
        Absorption       [ 0.00036 0.00029 0.00002 ]
        CloudHeight      7
        CloudSpeed       0
        CloudMap         "earth-clouds.*"
        CloudShadowDepth 1.0
    }
    CustomOrbit "vsop87-earth"

    # Overridden by CustomOrbit
    # EllipticalOrbit
    # {
    #     Epoch           2457754.5  # 2017 Jan 01
    #     Period          1.00115230968135
    #     SemiMajorAxis   1.000756460381853
    #     Eccentricity    0.01742757053311079
    #     Inclination     0.003361356887019717
    #     AscendingNode   140.0148334495845
    #     ArgOfPericenter 323.4532596516743
    #     MeanAnomaly     357.1577020155666
    # }

    # Orientation of Earth's axis with respect to the ecliptic plane and
    # equinox of J2000 is computed with the long period extension of
    # extension of the the P03 precession model presented in
    # "Long-periodic Precession Parameters", J. Vondrak (2006)
    BodyFrame      { EclipticJ2000 {} }
    CustomRotation "earth-p03lp"

    # Overriden by CustomRotation
    # UniformRotation
    # {
    #     Period        23.93447117
    #     Inclination   -23.4392911
    #     MeridianAngle 280.147
    # }

    GeomAlbedo      0.449576
    BondAlbedo      0.306
    TempDiscrepancy 33.5

    InfoURL "https://en.wikipedia.org/wiki/Earth"
}

"Moon:Earth I" "Sol/Earth"
{
    Class       "moon"
    Texture     "moon.*"
    BumpMap     "moonbump.*"
    BumpHeight  3.5
    # NormalMap "moon-normal.*"
    Radius      1738.14
    Oblateness  0.00125
    CustomOrbit "moon"

    # Overridden by CustomOrbit
    # OrbitFrame
    # {
    #     EclipticJ2000   { Center "Sol/Earth" }
    # }
    # EllipticalOrbit
    # {
    #     Epoch           2457754.5  # 2017 Jan 01
    #     Period          27.321582
    #     SemiMajorAxis   384399
    #     Eccentricity    0.0554
    #     Inclination     5.107
    #     AscendingNode   154.316
    #     ArgOfPericenter 271.378
    #     MeanAnomaly     250.217
    # }

    OrbitFrame
    {
        EquatorJ2000 { Center "Sol/Earth" }
    }
    BodyFrame      { EquatorJ2000 {} }
    CustomRotation "iau-moon"

    # Overriden by CustomRotation
    # UniformRotation
    # {
    #     Inclination   23.4608
    #     AscendingNode 359.9949
    #     MeridianAngle 38.3213
    # }

    GeomAlbedo      0.136
    BondAlbedo      0.11

    InfoURL "https://en.wikipedia.org/wiki/Moon"
}

"Mars" "Sol"
{
    Class       "planet"
    Texture     "mars.*"
    BumpMap     "marsbump.*"
    BumpHeight  2.5
    # NormalMap "mars-normal.*"
    Color       [ 1.0 0.75 0.7 ]
    Radius      3396.2
    Oblateness  0.00589
    Atmosphere
    {
        Height         110
        Lower          [ 0.8 0.6 0.6 ]
        Upper          [ 0.7 0.3 0.3 ]
        Sky            [ 0.83 0.75 0.65 ]
        Sunset         [ 0.7 0.7 0.8 ]
        CloudHeight    20
        CloudSpeed     32
        CloudMap       "mars-clouds.dds"
        Mie            0.0024
        MieAsymmetry   -0.15
        Rayleigh       [ 0.0010 0.0006 0.0003 ]
        Absorption     [ 0 0 0 ]
        MieScaleHeight 11
    }
    CustomOrbit "vsop87-mars"

    # Overridden by CustomOrbit
    # EllipticalOrbit
    # {
    #     Epoch           2457754.5  # 2017 Jan 01
    #     Period          1.880920881311
    #     SemiMajorAxis   1.523730861440858
    #     Eccentricity    0.09351281582486497
    #     Inclination     1.848383740665303
    #     AscendingNode   49.50720731023872
    #     ArgOfPericenter 286.6752161228218
    #     MeanAnomaly     33.24771046442243
    # }

    BodyFrame      { EquatorJ2000 {} }
    CustomRotation "iau-mars"

    # Overriden by CustomRotation
    # UniformRotation
    # {
    #     Period        24.622962156
    #     Inclination   37.11350
    #     AscendingNode 47.68143
    #     MeridianAngle 176.630
    # }

    GeomAlbedo      0.174821
    BondAlbedo      0.290
    TempDiscrepancy 2

    InfoURL "https://en.wikipedia.org/wiki/Mars"
}

"Phobos:Mars I" "Sol/Mars"
{
    Class       "minormoon"
    Mesh        "phobos.cmod"
    Orientation [ 90 0 1 0 ]
    Texture     "phobos.*"
    Radius      13.5
    OrbitFrame
    {
        EclipticJ2000   { Center "Sol/Mars" }
    }
    EllipticalOrbit
    {
        Epoch           2455570.5  # 2011 Jan 09
        Period          0.31891023
        SemiMajorAxis   9376
        Eccentricity    0.0151
        Inclination     25.643
        AscendingNode   83.152
        ArgOfPericenter 297.757
        MeanAnomaly     121.066
    }
    BodyFrame      { EquatorJ2000 {} }
    CustomRotation "iau-phobos"

    # Overriden by CustomRotation
    # UniformRotation
    # {
    #     Inclination   37.10
    #     AscendingNode 47.68
    #     MeridianAngle 35.06
    # }

    GeomAlbedo 0.071

    InfoURL "https://en.wikipedia.org/wiki/Phobos_(moon)"
}

